[{"OBJECT_NAME":"STARLINK-37249","OBJECT_ID":"2026-073Z","EPOCH":"2026-04-29T20:00:01.999008","MEAN_MOTION":15.75217189,"ECCENTRICITY":0.000128,"INCLINATION":97.2838,"RA_OF_ASC_NODE":318.2129,"ARG_OF_PERICENTER":88.2118,"MEAN_ANOMALY":249.7178,"EPHEMERIS_TYPE":0,"CLASSIFICATION_TYPE":"U","NORAD_CAT_ID":68625,"ELEMENT_SET_NO":999,"REV_AT_EPOCH":467,"BSTAR":-0.00071089,"MEAN_MOTION_DOT":-0.00104994,"MEAN_MOTION_DDOT":0},{"OBJECT_NAME":"STARLINK-37285","OBJECT_ID":"2026-073AA","EPOCH":"2026-04-29T19:21:57.711744","MEAN_MOTION":15.7524344,"ECCENTRICITY":9.85e-5,"INCLINATION":97.2832,"RA_OF_ASC_NODE":318.1049,"ARG_OF_PERICENTER":117.6919,"MEAN_ANOMALY":242.4446,"EPHEMERIS_TYPE":0,"CLASSIFICATION_TYPE":"U","NORAD_CAT_ID":68626,"ELEMENT_SET_NO":999,"REV_AT_EPOCH":360,"BSTAR":0.0010169,"MEAN_MOTION_DOT":0.00154685,"MEAN_MOTION_DDOT":0},{"OBJECT_NAME":"STP-S29A OBJECT A","OBJECT_ID":"2026-074A","EPOCH":"2026-04-29T18:34:56.215200","MEAN_MOTION":15.2343211,"ECCENTRICITY":0.0018768,"INCLINATION":60.0192,"RA_OF_ASC_NODE":3.9834,"ARG_OF_PERICENTER":330.0734,"MEAN_ANOMALY":29.9271,"EPHEMERIS_TYPE":0,"CLASSIFICATION_TYPE":"U","NORAD_CAT_ID":68627,"ELEMENT_SET_NO":999,"REV_AT_EPOCH":340,"BSTAR":0.00034423,"MEAN_MOTION_DOT":8.028e-5,"MEAN_MOTION_DDOT":0},{"OBJECT_NAME":"MISR-C-1","OBJECT_ID":"2026-074B","EPOCH":"2026-04-29T18:32:48.255936","MEAN_MOTION":15.23543595,"ECCENTRICITY":0.0017202,"INCLINATION":60.0245,"RA_OF_ASC_NODE":3.9938,"ARG_OF_PERICENTER":332.9442,"MEAN_ANOMALY":27.074,"EPHEMERIS_TYPE":0,"CLASSIFICATION_TYPE":"U","NORAD_CAT_ID":68628,"ELEMENT_SET_NO":999,"REV_AT_EPOCH":339,"BSTAR":0.00039696,"MEAN_MOTION_DOT":9.328e-5,"MEAN_MOTION_DDOT":0},{"OBJECT_NAME":"RAWHIDE-1","OBJECT_ID":"2026-074C","EPOCH":"2026-04-29T19:57:49.959072","MEAN_MOTION":15.24028658,"ECCENTRICITY":0.0020534,"INCLINATION":60.0231,"RA_OF_ASC_NODE":3.7034,"ARG_OF_PERICENTER":338.421,"MEAN_ANOMALY":21.6003,"EPHEMERIS_TYPE":0,"CLASSIFICATION_TYPE":"U","NORAD_CAT_ID":68629,"ELEMENT_SET_NO":999,"REV_AT_EPOCH":341,"BSTAR":0.00045083,"MEAN_MOTION_DOT":0.00010811,"MEAN_MOTION_DDOT":0},{"OBJECT_NAME":"STPSAT-7","OBJECT_ID":"2026-074D","EPOCH":"2026-04-29T18:18:00.201312","MEAN_MOTION":15.24184968,"ECCENTRICITY":0.0018746,"INCLINATION":60.0235,"RA_OF_ASC_NODE":3.9371,"ARG_OF_PERICENTER":343.3706,"MEAN_ANOMALY":16.6757,"EPHEMERIS_TYPE":0,"CLASSIFICATION_TYPE":"U","NORAD_CAT_ID":68630,"ELEMENT_SET_NO":999,"REV_AT_EPOCH":339,"BSTAR":0.00026094,"MEAN_MOTION_DOT":6.154e-5,"MEAN_MOTION_DDOT":0},{"OBJECT_NAME":"STP-S29A OBJECT E","OBJECT_ID":"2026-074E","EPOCH":"2026-04-29T19:52:26.743584","MEAN_MOTION":15.2415656,"ECCENTRICITY":0.0019371,"INCLINATION":60.0228,"RA_OF_ASC_NODE":3.6828,"ARG_OF_PERICENTER":343.3576,"MEAN_ANOMALY":16.6866,"EPHEMERIS_TYPE":0,"CLASSIFICATION_TYPE":"U","NORAD_CAT_ID":68631,"ELEMENT_SET_NO":999,"REV_AT_EPOCH":341,"BSTAR":0.00020222,"MEAN_MOTION_DOT":4.7e-5,"MEAN_MOTION_DDOT":0},{"OBJECT_NAME":"RAWHIDE-2","OBJECT_ID":"2026-074F","EPOCH":"2026-04-29T19:40:45.561792","MEAN_MOTION":15.24848251,"ECCENTRICITY":0.0019617,"INCLINATION":60.0329,"RA_OF_ASC_NODE":3.6713,"ARG_OF_PERICENTER":348.4547,"MEAN_ANOMALY":11.6081,"EPHEMERIS_TYPE":0,"CLASSIFICATION_TYPE":"U","NORAD_CAT_ID":68632,"ELEMENT_SET_NO":999,"REV_AT_EPOCH":340,"BSTAR":0.00046794,"MEAN_MOTION_DOT":0.00011511,"MEAN_MOTION_DDOT":0},{"OBJECT_NAME":"MISR-C-2","OBJECT_ID":"2026-074G","EPOCH":"2026-04-29T21:06:32.553216","MEAN_MOTION":15.25239637,"ECCENTRICITY":0.0020352,"INCLINATION":60.0238,"RA_OF_ASC_NODE":3.3605,"ARG_OF_PERICENTER":354.4829,"MEAN_ANOMALY":5.6025,"EPHEMERIS_TYPE":0,"CLASSIFICATION_TYPE":"U","NORAD_CAT_ID":68633,"ELEMENT_SET_NO":999,"REV_AT_EPOCH":341,"BSTAR":0.00047967,"MEAN_MOTION_DOT":0.00011954,"MEAN_MOTION_DDOT":0},{"OBJECT_NAME":"AGGIESAT6 (AGS6)","OBJECT_ID":"2026-074H","EPOCH":"2026-04-29T20:58:33.840192","MEAN_MOTION":15.2560904,"ECCENTRICITY":0.0021314,"INCLINATION":60.0235,"RA_OF_ASC_NODE":3.3299,"ARG_OF_PERICENTER":357.6777,"MEAN_ANOMALY":2.4201,"EPHEMERIS_TYPE":0,"CLASSIFICATION_TYPE":"U","NORAD_CAT_ID":68634,"ELEMENT_SET_NO":999,"REV_AT_EPOCH":342,"BSTAR":0.00041007,"MEAN_MOTION_DOT":0.00010296,"MEAN_MOTION_DDOT":0},{"OBJECT_NAME":"CANVAS","OBJECT_ID":"2026-074J","EPOCH":"2026-04-29T19:52:56.185248","MEAN_MOTION":15.24298666,"ECCENTRICITY":0.0020926,"INCLINATION":60.0243,"RA_OF_ASC_NODE":3.6929,"ARG_OF_PERICENTER":341.825,"MEAN_ANOMALY":18.208,"EPHEMERIS_TYPE":0,"CLASSIFICATION_TYPE":"U","NORAD_CAT_ID":68635,"ELEMENT_SET_NO":999,"REV_AT_EPOCH":341,"BSTAR":0.00053032,"MEAN_MOTION_DOT":0.00012879,"MEAN_MOTION_DDOT":0},{"OBJECT_NAME":"QIANFAN-109","OBJECT_ID":"2026-075A","EPOCH":"2026-04-29T18:45:03.138912","MEAN_MOTION":14.13763338,"ECCENTRICITY":0.0015523,"INCLINATION":88.9883,"RA_OF_ASC_NODE":326.1631,"ARG_OF_PERICENTER":145.3299,"MEAN_ANOMALY":214.8902,"EPHEMERIS_TYPE":0,"CLASSIFICATION_TYPE":"U","NORAD_CAT_ID":68636,"ELEMENT_SET_NO":999,"REV_AT_EPOCH":315,"BSTAR":-1.1592,"MEAN_MOTION_DOT":-0.02031268,"MEAN_MOTION_DDOT":0},{"OBJECT_NAME":"QIANFAN-110","OBJECT_ID":"2026-075B","EPOCH":"2026-04-29T17:09:13.027104","MEAN_MOTION":14.12974098,"ECCENTRICITY":0.0015785,"INCLINATION":88.9887,"RA_OF_ASC_NODE":326.1732,"ARG_OF_PERICENTER":140.0943,"MEAN_ANOMALY":220.1406,"EPHEMERIS_TYPE":0,"CLASSIFICATION_TYPE":"U","NORAD_CAT_ID":68637,"ELEMENT_SET_NO":999,"REV_AT_EPOCH":314,"BSTAR":-1.2246,"MEAN_MOTION_DOT":-0.02108908,"MEAN_MOTION_DDOT":0},{"OBJECT_NAME":"QIANFAN-111","OBJECT_ID":"2026-075C","EPOCH":"2026-04-29T20:15:04.630176","MEAN_MOTION":14.17029301,"ECCENTRICITY":0.0016178,"INCLINATION":88.9899,"RA_OF_ASC_NODE":326.1538,"ARG_OF_PERICENTER":144.1379,"MEAN_ANOMALY":216.0898,"EPHEMERIS_TYPE":0,"CLASSIFICATION_TYPE":"U","NORAD_CAT_ID":68638,"ELEMENT_SET_NO":999,"REV_AT_EPOCH":316,"BSTAR":5.853e-5,"MEAN_MOTION_DOT":1.32e-6,"MEAN_MOTION_DDOT":0},{"OBJECT_NAME":"QIANFAN-112","OBJECT_ID":"2026-075D","EPOCH":"2026-04-29T18:34:54.996096","MEAN_MOTION":14.14208542,"ECCENTRICITY":0.0016555,"INCLINATION":88.9887,"RA_OF_ASC_NODE":326.1615,"ARG_OF_PERICENTER":149.9874,"MEAN_ANOMALY":210.2266,"EPHEMERIS_TYPE":0,"CLASSIFICATION_TYPE":"U","NORAD_CAT_ID":68639,"ELEMENT_SET_NO":999,"REV_AT_EPOCH":315,"BSTAR":-1.1606,"MEAN_MOTION_DOT":-0.02049471,"MEAN_MOTION_DDOT":0},{"OBJECT_NAME":"QIANFAN-113","OBJECT_ID":"2026-075E","EPOCH":"2026-04-29T18:25:44.328288","MEAN_MOTION":14.13802789,"ECCENTRICITY":0.0015675,"INCLINATION":88.9885,"RA_OF_ASC_NODE":326.1624,"ARG_OF_PERICENTER":142.3347,"MEAN_ANOMALY":217.894,"EPHEMERIS_TYPE":0,"CLASSIFICATION_TYPE":"U","NORAD_CAT_ID":68640,"ELEMENT_SET_NO":999,"REV_AT_EPOCH":315,"BSTAR":-1.1607,"MEAN_MOTION_DOT":-0.02035084,"MEAN_MOTION_DDOT":0},{"OBJECT_NAME":"QIANFAN-114","OBJECT_ID":"2026-075F","EPOCH":"2026-04-29T18:07:42.697056","MEAN_MOTION":14.15539797,"ECCENTRICITY":0.0015208,"INCLINATION":88.9881,"RA_OF_ASC_NODE":326.1609,"ARG_OF_PERICENTER":162.9967,"MEAN_ANOMALY":197.1733,"EPHEMERIS_TYPE":0,"CLASSIFICATION_TYPE":"U","NORAD_CAT_ID":68641,"ELEMENT_SET_NO":999,"REV_AT_EPOCH":315,"BSTAR":-1.1372,"MEAN_MOTION_DOT":-0.02057116,"MEAN_MOTION_DDOT":0}]
