STARLINK-37249          
1 68625U 26073Z   26119.83335647 -.00104994  00000+0 -71089-3 0  9999
2 68625  97.2838 318.2129 0001280  88.2118 249.7178 15.75217189  4672
STARLINK-37285          
1 68626U 26073AA  26119.80691796  .00154685  00000+0  10169-2 0  9998
2 68626  97.2832 318.1049 0000985 117.6919 242.4446 15.75243440  3603
STP-S29A OBJECT A       
1 68627U 26074A   26119.77426175  .00008028  00000+0  34423-3 0  9992
2 68627  60.0192   3.9834 0018768 330.0734  29.9271 15.23432110  3405
MISR-C-1                
1 68628U 26074B   26119.77278074  .00009328  00000+0  39696-3 0  9997
2 68628  60.0245   3.9938 0017202 332.9442  27.0740 15.23543595  3397
RAWHIDE-1               
1 68629U 26074C   26119.83182823  .00010811  00000+0  45083-3 0  9997
2 68629  60.0231   3.7034 0020534 338.4210  21.6003 15.24028658  3418
STPSAT-7                
1 68630U 26074D   26119.76250233  .00006154  00000+0  26094-3 0  9998
2 68630  60.0235   3.9371 0018746 343.3706  16.6757 15.24184968  3391
STP-S29A OBJECT E       
1 68631U 26074E   26119.82808731  .00004700  00000+0  20222-3 0  9990
2 68631  60.0228   3.6828 0019371 343.3576  16.6866 15.24156560  3419
RAWHIDE-2               
1 68632U 26074F   26119.81997178  .00011511  00000+0  46794-3 0  9994
2 68632  60.0329   3.6713 0019617 348.4547  11.6081 15.24848251  3400
MISR-C-2                
1 68633U 26074G   26119.87954344  .00011954  00000+0  47967-3 0  9993
2 68633  60.0238   3.3605 0020352 354.4829   5.6025 15.25239637  3410
AGGIESAT6 (AGS6)        
1 68634U 26074H   26119.87400278  .00010296  00000+0  41007-3 0  9993
2 68634  60.0235   3.3299 0021314 357.6777   2.4201 15.25609040  3424
CANVAS                  
1 68635U 26074J   26119.82842807  .00012879  00000+0  53032-3 0  9997
2 68635  60.0243   3.6929 0020926 341.8250  18.2080 15.24298666  3412
QIANFAN-109             
1 68636U 26075A   26119.78128633 -.02031268  00000+0 -11592+1 0  9997
2 68636  88.9883 326.1631 0015523 145.3299 214.8902 14.13763338  3150
QIANFAN-110             
1 68637U 26075B   26119.71473411 -.02108908  00000+0 -12246+1 0  9991
2 68637  88.9887 326.1732 0015785 140.0943 220.1406 14.12974098  3149
QIANFAN-111             
1 68638U 26075C   26119.84380359  .00000132  00000+0  58530-4 0  9990
2 68638  88.9899 326.1538 0016178 144.1379 216.0898 14.17029301  3166
QIANFAN-112             
1 68639U 26075D   26119.77424764 -.02049471  00000+0 -11606+1 0  9994
2 68639  88.9887 326.1615 0016555 149.9874 210.2266 14.14208542  3159
QIANFAN-113             
1 68640U 26075E   26119.76787417 -.02035084  00000+0 -11607+1 0  9998
2 68640  88.9885 326.1624 0015675 142.3347 217.8940 14.13802789  3157
QIANFAN-114             
1 68641U 26075F   26119.75535529 -.02057116  00000+0 -11372+1 0  9992
2 68641  88.9881 326.1609 0015208 162.9967 197.1733 14.15539797  3153
